BEIDOU-3 M19 (C41)      
1 44864U 19090A   26117.11905514 -.00000046  00000+0  00000+0 0  9997
2 44864  56.5169  64.4771 0019746 296.1881 199.1410  1.86231407 43285
BEIDOU-3 M20 (C42)      
1 44865U 19090B   26116.40926545 -.00000038  00000+0  00000+0 0  9997
2 44865  56.5180  64.5353 0017474 308.3640 160.6881  1.86231167 43256
BEIDOU-3 G2 (C60)       
1 45344U 20017A   26117.00898125 -.00000149  00000+0  00000+0 0  9993
2 45344   2.7634  46.5387 0002550 348.2319 263.5062  1.00271422 22747
COSMOS 2545 (760)       
1 45358U 20018A   26117.07515941 -.00000032  00000+0  00000+0 0  9999
2 45358  64.3860 314.2154 0007174 238.6817 121.2732  2.13102376 47574
BEIDOU-3 G3 (C61)       
1 45807U 20040A   26117.49047071 -.00000361  00000+0  00000+0 0  9998
2 45807   2.3248  67.2965 0003780 329.9684 105.3197  1.00270098 21566
GPS BIII-3  (PRN 23)    
1 45854U 20041A   26117.09853679 -.00000106  00000+0  00000+0 0  9993
2 45854  56.6387  30.9255 0062218 205.0319 313.2798  2.00559759 43019
GALAXY 30 (WAAS/PRN 135)
1 46114U 20056C   26117.03966138  .00000000  00000+0  00000+0 0  9990
2 46114   0.0126 236.3465 0002527 172.8147  55.1468  1.00271333 20788
COSMOS 2547 (705K)      
1 46805U 20075A   26117.26421145 -.00000003  00000+0  00000+0 0  9991
2 46805  64.5969 194.1741 0008364 236.7857 123.1845  2.13100275 42821
GPS BIII-4  (PRN 14)    
1 46826U 20078A   26112.92753654 -.00000017  00000+0  00000+0 0  9993
2 46826  53.9891 213.0193 0070939 205.6597 155.6852  2.00564823 40404
GPS BIII-5  (PRN 11)    
1 48859U 21054A   26117.41549758 -.00000084  00000+0  00000+0 0  9997
2 48859  55.1967 334.5003 0024041 229.8581 317.6354  2.00572318 35738
QZS-1R (QZSS/PRN 196)   
1 49336U 21096A   26117.22127905 -.00000237  00000+0  00000+0 0  9999
2 49336  37.3604  80.3327 0751436 270.8549  79.3818  1.00272987 16496
GSAT0223 (GALILEO 27)   
1 49809U 21116A   26116.95302962 -.00000091  00000+0  00000+0 0  9992
2 49809  57.1768 343.0587 0000603 260.8560  95.4130  1.70475733 27303
GSAT0224 (GALILEO 28)   
1 49810U 21116B   26114.72218082 -.00000089  00000+0  00000+0 0  9993
2 49810  57.1774 343.1180 0000625  14.3979 165.3634  1.70475626 27297
COSMOS 2557 (706K)      
1 52984U 22075A   26116.95964515 -.00000033  00000+0  00000+0 0  9999
2 52984  64.3278 316.2899 0010196 281.3644  78.5490  2.13101838 29622
COSMOS 2559 (707K)      
1 54031U 22130A   26115.84062453 -.00000029  00000+0  00000+0 0  9998
2 54031  64.3018 316.4145 0011364 176.1051 183.9320  2.13101453 27574
COSMOS 2564 (761)       
1 54377U 22161A   26117.09180574 -.00000005  00000+0  00000+0 0  9993
2 54377  64.7390 194.4071 0011053 219.7400 140.2284  2.13101958 26544
GPS BIII-6  (PRN 28)    
1 55268U 23009A   26116.15940615  .00000060  00000+0  00000+0 0  9991
2 55268  55.1147 150.5635 0005615 315.2799  82.8080  2.00574943 24207
